NOAA 16                 
1 26536U 00055A   24287.42745542  .00000479  00000+0  27543-3 0  9991
2 26536  98.5201 321.5612 0009319 255.4245 104.5895 14.13669830537286
NOAA 17                 
1 27453U 02032A   24287.53727668  .00000981  00000+0  43179-3 0  9999
2 27453  98.7768 238.1395 0011161 330.9421  29.1137 14.25752073159814
NOAA 18                 
1 28654U 05018A   24287.50874126  .00000817  00000+0  45786-3 0  9993
2 28654  98.8660   3.4515 0015226  88.8915 271.4002 14.13371951999881
NOAA 19                 
1 33591U 09005A   24287.47714940  .00000709  00000+0  40324-3 0  9995
2 33591  99.0337 344.4581 0013060 321.8341  38.1905 14.13155829808332
SUOMI NPP               
1 37849U 11061A   24287.52666786  .00000530  00000+0  27242-3 0  9996
2 37849  98.7301 223.7605 0000244  90.2835 269.8369 14.19530551671655
NOAA 20 (JPSS-1)        
1 43013U 17073A   24287.47337205  .00000485  00000+0  25084-3 0  9991
2 43013  98.7142 223.4413 0000729 165.0432 195.0766 14.19537424357685
NOAA 21 (JPSS-2)        
1 54234U 22150A   24287.51025610  .00000579  00000+0  29551-3 0  9996
2 54234  98.7598 224.0474 0001817 116.2036 243.9327 14.19537563 99760
ISS (ZARYA)             
1 25544U 98067A   24287.46659629  .00028395  00000+0  50666-3 0  9992
2 25544  51.6381  89.5489 0009128  65.4963 294.6976 15.49796863476897
CSS (TIANHE)            
1 48274U 21035A   24287.42261073  .00037734  00000+0  37999-3 0  9997
2 48274  41.4663  81.8990 0003964 196.7830 163.2879 15.64652229197591
ISS (NAUKA)             
1 49044U 21066A   24287.46659629  .00028395  00000+0  50666-3 0  9998
2 49044  51.6381  89.5489 0009128  65.4963 294.6976 15.49796863182678
FREGAT DEB              
1 49271U 11037PF  24287.37387246  .00016161  00000+0  41179-1 0  9995
2 49271  51.6284   7.1351 0901310  18.3921 344.7413 12.21447185149629
CSS (WENTIAN)           
1 53239U 22085A   24287.42261073  .00037734  00000+0  37999-3 0  9990
2 53239  41.4663  81.8990 0003964 196.7830 163.2879 15.64652229124396
CSS (MENGTIAN)          
1 54216U 22143A   24287.42261073  .00037734  00000+0  37999-3 0  9991
2 54216  41.4663  81.8990 0003964 196.7830 163.2879 15.64652229110757
TIANZHOU-7              
1 58811U 24013A   24287.42261073  .00037734  00000+0  37999-3 0  9994
2 58811  41.4663  81.8990 0003964 196.7830 163.2879 15.64652229474889
CREW DRAGON 8           
1 59097U 24042A   24287.46659629  .00028395  00000+0  50666-3 0  9994
2 59097  51.6381  89.5489 0009128  65.4963 294.6976 15.49796863 34336
1998-067WL              
1 59561U 98067WL  24286.72342743  .00125049  00000+0  80435-3 0  9993
2 59561  51.6254  80.0243 0003857 295.2572  64.8028 15.75294842 27681
SHENZHOU-18 (SZ-18)     
1 59591U 24078A   24287.42261073  .00037734  00000+0  37999-3 0  9991
2 59591  41.4663  81.8990 0003964 196.7830 163.2879 15.64652229 25933
SZ-17 MODULE            
1 59624U 23164C   24287.44090924  .00143606  00000+0  63807-3 0  9993
2 59624  41.4718  71.2017 0012048 359.6616   0.4221 15.83012075 26157
PROGRESS-MS 27          
1 59913U 24103A   24287.46659629  .00028395  00000+0  50666-3 0  9999
2 59913  51.6381  89.5489 0009128  65.4963 294.6976 15.49796863 21058
CYGNUS NG-21            
1 60378U 24139A   24287.46659629  .00028395  00000+0  50666-3 0  9995
2 60378  51.6381  89.5489 0009128  65.4963 294.6976 15.49796863 10592
PROGRESS-MS 28          
1 60450U 24145A   24287.46659629  .00028395  00000+0  50666-3 0  9993
2 60450  51.6381  89.5489 0009128  65.4963 294.6976 15.49796863  9052
BINAR-4                 
1 60952U 98067WS  24287.47006280  .00425396  00000+0  31415-2 0  9996
2 60952  51.6286  86.5676 0002812 305.5408  54.5327 15.71139393  7036
COSMOGIRLSAT            
1 60953U 98067WT  24287.48447106  .00160229  00000+0  17302-2 0  9994
2 60953  51.6324  87.4208 0004358  95.0076 265.1416 15.62580932  7027
SAKURA                  
1 60954U 98067WU  24287.52829760  .00184602  00000+0  18565-2 0  9993
2 60954  51.6320  86.9635 0003068  90.6331 269.5015 15.64310909  7035
1998-067WV              
1 60955U 98067WV  24286.64255330  .01000920  00000+0  37042-2 0  9994
2 60955  51.6283  89.2819 0008158 295.9856  64.0307 15.85062319  6922
BINAR-2                 
1 60956U 98067WW  24287.49368538  .00316461  00000+0  26771-2 0  9990
2 60956  51.6230  86.7122 0000674 354.5426   5.5563 15.68184068  7027
BINAR-3                 
1 60957U 98067WX  24287.45341237  .00404315  00000+0  29264-2 0  9990
2 60957  51.6257  86.4510 0003323 319.3006  40.7743 15.71680475  9011
1998-067WY              
1 60958U 98067WY  24287.49444501  .00145198  00000+0  16246-2 0  9990
2 60958  51.6347  87.4906 0004858  93.9947 266.1603 15.61719675  7016
SOYUZ-MS 26             
1 61043U 24162A   24287.46659629  .00028395  00000+0  50666-3 0  9991
2 61043  51.6381  89.5489 0009128  65.4963 294.6976 15.49796863476587
CREW DRAGON 9           
1 61447U 24178A   24287.46659629  .00028395  00000+0  50666-3 0  9996
2 61447  51.6381  89.5489 0009128  65.4963 294.6976 15.49796863  1994
CYSAT-1                 
1 61501U 98067WZ  24287.52617977  .00115321  00000+0  18712-2 0  9993
2 61501  51.6364  89.1960 0008754  86.4710 273.7281 15.51824646   836
DORA                    
1 61502U 98067XA  24287.52539883  .00183455  00000+0  28844-2 0  9993
2 61502  51.6367  89.1911 0006172  76.5826 283.5851 15.52440873   824
